CCSDS_OEM_VERS = 2.0  
CREATION_DATE  = 2026-03-24T10:37:55
ORIGINATOR     = ESOC/OPS-GFA                            
 
 



META_START
OBJECT_NAME          = LISA                                    
OBJECT_ID            = -1000                                   
CENTER_NAME          = SUN                     
REF_FRAME            = EME2000 
TIME_SYSTEM          = TCB
START_TIME           = 2036-12-23T00:00:30.346418            
STOP_TIME            = 2047-09-09T13:05:22.587857            
INTERPOLATION        = HERMITE                                 
INTERPOLATION_DEGREE = 7                                       
META_STOP

2047-06-21T22:19:29.245578    -6.35759444168479368e+07   -1.25228768765562907e+08   -5.35603686595000699e+07    2.68396539537523822e+01   -1.16978277405271527e+01   -4.84194839989013737e+00    2.48464281982776750e-06    4.89409315578300840e-06    2.09321062263182339e-06
2047-06-22T18:36:21.855645    -6.16097571857384890e+07   -1.26069784279498518e+08   -5.39083008382822275e+07    2.70182469085662404e+01   -1.13393220495730382e+01   -4.68863182003003764e+00    2.40739004705202606e-06    4.92611333978762496e-06    2.10644511150672530e-06
2047-06-23T14:53:14.465712    -5.96307367391538620e+07   -1.26884539834655032e+08   -5.42450040506113842e+07    2.71911821509890643e+01   -1.09785160079885777e+01   -4.53436499835741991e+00    2.32966644406431367e-06    4.95710461836925381e-06    2.11923975516273099e-06
2047-06-24T11:10:07.075779    -5.76392973983240351e+07   -1.27672870212537870e+08   -5.45704100864290297e+07    2.73584258907117288e+01   -1.06154849469274204e+01   -4.37918013456729849e+00    2.25148807473705853e-06    4.98706131632707832e-06    2.13159222360872987e-06
2047-06-25T07:26:59.685846    -5.56358559265696555e+07   -1.28434615831677526e+08   -5.48844531447761282e+07    2.75199455112699916e+01   -1.02503046068127972e+01   -4.22310959628368643e+00    2.17287102674388140e-06    5.01597789329372740e-06    2.14350024483920756e-06
2047-06-26T03:49:16.520692    -5.36118581700327769e+07   -1.29172826658938944e+08   -5.51883880128816813e+07    2.76763883970048568e+01   -9.88141574767098163e+00   -4.06548720651779938e+00    2.09347983257148683e-06    5.04397097220979360e-06    2.15501175926943620e-06
2047-06-27T00:11:33.355538    -5.15766012560506389e+07   -1.29883910031373709e+08   -5.54807328094210252e+07    2.78269938626184299e+01   -9.51051278723589277e+00   -3.90703718116031506e+00    2.01367902163566552e-06    5.07090450875180766e-06    2.16607072245185289e-06
2047-06-27T20:33:50.190383    -4.95305143627368584e+07   -1.30567721124817833e+08   -5.57614280696892589e+07    2.79717324764597493e+01   -9.13767360288196251e+00   -3.74779277962508228e+00    1.93348519058615956e-06    5.09677378463538804e-06    2.17667521556155472e-06
2047-06-28T16:56:07.025229    -4.74740287883649543e+07   -1.31224120778845027e+08   -5.60304167477321476e+07    2.81105760254538275e+01   -8.76297641236709879e+00   -3.58778739962659321e+00    1.85291497585678556e-06    5.12157424005587533e-06    2.18682338771303254e-06
2047-06-29T13:18:23.860075    -4.54075778573038056e+07   -1.31852975573406637e+08   -5.62876442484125420e+07    2.82434975181652099e+01   -8.38649976126383478e+00   -3.42705457180227580e+00    1.77198505737175031e-06    5.14530149858050792e-06    2.19651346635106635e-06
2047-06-30T09:40:40.694920    -4.33315968278243542e+07   -1.32454157879593953e+08   -5.65330584484945610e+07    2.83704711880825222e+01   -8.00832250875054719e+00   -3.26562795365102376e+00    1.69071216091655172e-06    5.16795138706952389e-06    2.20574376554587901e-06
2047-07-01T06:02:57.529766    -4.12465228012968749e+07   -1.33027545889949575e+08   -5.67666097090486065e+07    2.84914724970279316e+01   -7.62852381212387698e+00   -3.10354132294015361e+00    1.60911305917402146e-06    5.18951995063172795e-06    2.21451269219506832e-06
2047-07-02T02:25:14.364611    -3.91527946323157400e+07   -1.33573023633744925e+08   -5.69882508814762086e+07    2.86064781385935767e+01   -7.24718311039663909e+00   -2.94082857073440440e+00    1.52720457142282395e-06    5.21000346260685945e-06    2.22281875012882118e-06
2047-07-02T22:47:31.199457    -3.70508528392886966e+07   -1.34090480982641786e+08   -5.71979373094538972e+07    2.87154660415069536e+01   -6.86438010734561388e+00   -2.77752369420056056e+00    1.44500356190258606e-06    5.22939842958778282e-06    2.23066054212411394e-06
2047-07-03T19:09:48.034303    -3.49411395150278360e+07   -1.34579813652154982e+08   -5.73956268290951848e+07    2.88184153728272960e+01   -6.48019475437358317e+00   -2.61366078934134194e+00    1.36252693683690345e-06    5.24770159145538282e-06    2.23803676981629314e-06
2047-07-04T15:32:04.869149    -3.28240982368793078e+07   -1.35040923204333812e+08   -5.75812797696298212e+07    2.89153065408750258e+01   -6.09470723354996213e+00   -2.44927404381212366e+00    1.27979164013629180e-06    5.26490991649246512e-06    2.24494623153627518e-06
2047-07-05T11:54:21.703995    -3.07001739759287760e+07   -1.35473717057079643e+08   -5.77548589568995088e+07    2.90061211977962223e+01   -5.70799794119437376e+00   -2.28439772997412538e+00    1.19681464774045927e-06    5.28102059145419068e-06    2.25138781802122984e-06
2047-07-06T08:16:38.538840    -2.85698130048197210e+07   -1.35878108505517334e+08   -5.79163297219690755e+07    2.90908422416642161e+01   -5.32014747236752861e+00   -2.11906619833765264e+00    1.11361296064141572e-06    5.29603100672665497e-06    2.25736050605476901e-06
2047-07-07T04:38:55.373686    -2.64334628037217259e+07   -1.36254016760837615e+08   -5.80656599171524197e+07    2.91694538180202620e+01   -4.93123660663377006e+00   -1.95331387154899705e+00    1.03020359657754944e-06    5.30993873652459767e-06    2.26286335001572623e-06
2047-07-08T01:01:12.208531    -2.42915719639857933e+07   -1.36601367012028039e+08   -5.82028199417521954e+07    2.92419413207554229e+01   -4.54134629545970459e+00   -1.78717523907463338e+00    9.46603580380339005e-07    5.32274151409998749e-06    2.26789547132373441e-06
2047-07-08T21:23:29.043377    -2.21445900890237093e+07   -1.36920090515910089e+08   -5.83277827798125073e+07    2.93082913922355459e+01   -4.15055765161313417e+00   -1.62068485273626051e+00    8.62829932954506257e-07    5.33443720189241175e-06    2.27245604575159982e-06
2047-07-09T17:38:04.964525    -2.00065039925929569e+07   -1.37208391306265682e+08   -5.84398535735373199e+07    2.93681328012562801e+01   -3.76141549910174167e+00   -1.45492659877438402e+00    7.79427796805770516e-07    5.34496137689218673e-06    2.27652036360005042e-06
2047-07-10T13:52:40.885673    -1.78642784936236106e+07   -1.37468306042175591e+08   -5.85398342085391358e+07    2.94218910815054500e+01   -3.37154632859177994e+00   -1.28888916051786562e+00    6.95887908003742563e-07    5.35438920280633591e-06    2.28011787647040614e-06
2047-07-11T10:07:16.806821    -1.57183572438098174e+07   -1.37699784680026680e+08   -5.86277055900122002e+07    2.94695568058763868e+01   -2.98103008263171532e+00   -1.12260657300673738e+00    6.12227056390345113e-07    5.36271946523810277e-06    2.28324814964668093e-06
2047-07-12T06:21:52.727969    -1.35691845570139252e+07   -1.37902782951781273e+08   -5.87034510819697157e+07    2.95111217710682965e+01   -2.58994678683663748e+00   -9.56112900672583366e-01    5.28462037727600706e-07    5.36995110318413185e-06    2.28591081306003785e-06
2047-07-13T02:36:28.649117    -1.14172053038150296e+07   -1.38077262417123586e+08   -5.87670565289098322e+07    2.95465789979218521e+01   -2.19837653784890596e+00   -7.89442232257640097e-01    4.44609651026383449e-07    5.37608323179717227e-06    2.28810557106843999e-06
2047-07-13T22:51:04.570265    -9.26286481372348219e+06   -1.38223190492444932e+08   -5.88185102676716745e+07    2.95759227315559734e+01   -1.80639948980915532e+00   -6.22628675093401807e-01    3.60686695786998651e-07    5.38111516060516011e-06    2.28983221029725714e-06
2047-07-14T19:05:40.491413    -7.10660878336695954e+06   -1.38340540461507708e+08   -5.88578031315312907e+07    2.95991484413002190e+01   -1.41409583966496921e+00   -4.55706348878435641e-01    2.76709969150503766e-07    5.38504640719231671e-06    2.29109060554290924e-06
2047-07-15T15:20:16.412561    -4.94888318897372112e+06   -1.38429291472623587e+08   -5.88849284485851675e+07    2.96162528204163316e+01   -1.02154581164817504e+00   -2.88709379096656171e-01    1.92696262960137645e-07    5.38787670633222041e-06    2.29188072373554910e-06
2047-07-16T11:34:52.333709    -2.79013420147851482e+06   -1.38489428527181476e+08   -5.88998820364690572e+07    2.96272337856023853e+01   -6.28829641251703375e-01   -1.21671890217296630e-01    1.08662360734157369e-07    5.38960601459171269e-06    2.29220262596859694e-06
2047-07-17T07:49:28.254857    -6.30808102576777339e+05   -1.38520942464360774e+08   -5.89026621954598501e+07    2.96320904762730279e+01   -2.36027559036965151e-01    4.53720011821581171e-02    2.46250345475936298e-08    5.39023451037350819e-06    2.29205646758160564e-06
2047-07-18T04:04:04.176005     1.52864879994733259e+06   -1.38523829946865112e+08   -5.88932697020083219e+07    2.96308232536092824e+01    1.56780225397352702e-01    2.12388193228850941e-01   -5.93989581738806716e-08    5.38976258944376921e-06    2.29144249631608409e-06
2047-07-19T00:18:40.097153     3.68779025929352269e+06   -1.38498093452512294e+08   -5.88717078047503158e+07    2.96234336993713860e+01    5.49513538954035319e-01    3.79342605361983054e-01   -1.43392877949392799e-07    5.38819085590037220e-06    2.29036104852532673e-06
2047-07-19T20:33:16.018301     5.84617018079314008e+06   -1.38443741276515663e+08   -5.88379822250443101e+07    2.96099246144681949e+01    9.42092259752794980e-01    5.46201184593557709e-01   -2.27340006629003879e-07    5.38552010860084878e-06    2.28881254344663399e-06
